ORBCOMM FM115           
1 41186U 15081H   24116.38232393  .00002490  00000+0  54209-3 0  9999
2 41186  46.9972 223.7932 0001487 285.3997  74.6725 14.60613746446654
ORBCOMM FM108           
1 41187U 15081J   24116.52375662  .00002774  00000+0  65465-3 0  9994
2 41187  47.0034 276.9541 0002994 203.7029 156.3718 14.56519888445955
ORBCOMM FM117           
1 41188U 15081K   24116.55811073  .00002756  00000+0  65042-3 0  9990
2 41188  46.9989 275.6905 0003536 210.4563 149.6117 14.56524369445974
ORBCOMM FM116           
1 41189U 15081L   24116.82181091  .00003684  00000+0  85673-3 0  9994
2 41189  47.0023   4.2662 0002499 297.1226  62.9404 14.56526632444775
